STARLINK-11556 [DTC]    
1 62838U 25019K   26068.05781702  .00176347  00000+0  13461-2 0  9990
2 62838  43.0010 309.5848 0001884 265.0775  94.9877 15.70888250 63789
ISS OBJECT XU           
1 66908U 98067XU  26068.19895314  .00161175  00000+0  13351-2 0  9996
2 66908  51.6248  68.1144 0004893  76.6698 283.4844 15.69191892 15108
