[{"OBJECT_NAME":"STARLINK-11556 [DTC]","OBJECT_ID":"2025-019K","EPOCH":"2026-03-09T01:23:15.390528","MEAN_MOTION":15.7088825,"ECCENTRICITY":0.00018841,"INCLINATION":43.001,"RA_OF_ASC_NODE":309.5848,"ARG_OF_PERICENTER":265.0775,"MEAN_ANOMALY":94.9877,"EPHEMERIS_TYPE":0,"CLASSIFICATION_TYPE":"U","NORAD_CAT_ID":62838,"ELEMENT_SET_NO":999,"REV_AT_EPOCH":6378,"BSTAR":0.0013461026,"MEAN_MOTION_DOT":0.00176347,"MEAN_MOTION_DDOT":0},{"OBJECT_NAME":"ISS OBJECT XU","OBJECT_ID":"1998-067XU","EPOCH":"2026-03-09T04:46:29.551296","MEAN_MOTION":15.69191892,"ECCENTRICITY":0.00048935,"INCLINATION":51.6248,"RA_OF_ASC_NODE":68.1144,"ARG_OF_PERICENTER":76.6698,"MEAN_ANOMALY":283.4844,"EPHEMERIS_TYPE":0,"CLASSIFICATION_TYPE":"U","NORAD_CAT_ID":66908,"ELEMENT_SET_NO":999,"REV_AT_EPOCH":1510,"BSTAR":0.0013351438,"MEAN_MOTION_DOT":0.00161175,"MEAN_MOTION_DDOT":0}]
